CCSDS_OMM_VERS = 2.0
CREATION_DATE  = 
ORIGINATOR     = 

OBJECT_NAME    = ATLAS CENTAUR R/B
OBJECT_ID      = 1972-065B
CENTER_NAME    = EARTH
REF_FRAME      = TEME
TIME_SYSTEM    = UTC
MEAN_ELEMENT_THEORY = SGP/SGP4

EPOCH          = 2026-01-01T06:10:34.416192
MEAN_MOTION    = 14.77470350
ECCENTRICITY   = .00336826
INCLINATION    = 35.0028
RA_OF_ASC_NODE = 340.8653
ARG_OF_PERICENTER = 164.1154
MEAN_ANOMALY   = 196.0609

EPHEMERIS_TYPE = 0
CLASSIFICATION_TYPE = U
NORAD_CAT_ID   = 6155
ELEMENT_SET_NO = 999
REV_AT_EPOCH   = 83128
BSTAR          = .3270611E-3
MEAN_MOTION_DOT = .2369E-4
MEAN_MOTION_DDOT = 0

CCSDS_OMM_VERS = 2.0
CREATION_DATE  = 
ORIGINATOR     = 

OBJECT_NAME    = SL-8 R/B
OBJECT_ID      = 1975-112B
CENTER_NAME    = EARTH
REF_FRAME      = TEME
TIME_SYSTEM    = UTC
MEAN_ELEMENT_THEORY = SGP/SGP4

EPOCH          = 2025-12-31T19:42:08.054784
MEAN_MOTION    = 14.38160270
ECCENTRICITY   = .00167206
INCLINATION    = 74.0604
RA_OF_ASC_NODE = 143.7606
ARG_OF_PERICENTER = 253.2947
MEAN_ANOMALY   = 106.6372

EPHEMERIS_TYPE = 0
CLASSIFICATION_TYPE = U
NORAD_CAT_ID   = 8459
ELEMENT_SET_NO = 999
REV_AT_EPOCH   = 62211
BSTAR          = .19418796E-3
MEAN_MOTION_DOT = .564E-5
MEAN_MOTION_DDOT = 0

CCSDS_OMM_VERS = 2.0
CREATION_DATE  = 
ORIGINATOR     = 

OBJECT_NAME    = SL-3 R/B
OBJECT_ID      = 1977-057B
CENTER_NAME    = EARTH
REF_FRAME      = TEME
TIME_SYSTEM    = UTC
MEAN_ELEMENT_THEORY = SGP/SGP4

EPOCH          = 2026-01-01T06:34:19.848576
MEAN_MOTION    = 15.43478295
ECCENTRICITY   = .00077668
INCLINATION    = 97.5685
RA_OF_ASC_NODE = 170.3705
ARG_OF_PERICENTER = 157.8561
MEAN_ANOMALY   = 202.3023

EPHEMERIS_TYPE = 0
CLASSIFICATION_TYPE = U
NORAD_CAT_ID   = 10114
ELEMENT_SET_NO = 999
REV_AT_EPOCH   = 65792
BSTAR          = .41496645E-3
MEAN_MOTION_DOT = .18532E-3
MEAN_MOTION_DDOT = 0

CCSDS_OMM_VERS = 2.0
CREATION_DATE  = 
ORIGINATOR     = 

OBJECT_NAME    = SEASAT 1
OBJECT_ID      = 1978-064A
CENTER_NAME    = EARTH
REF_FRAME      = TEME
TIME_SYSTEM    = UTC
MEAN_ELEMENT_THEORY = SGP/SGP4

EPOCH          = 2025-12-31T21:55:11.960832
MEAN_MOTION    = 14.46085923
ECCENTRICITY   = .0001258
INCLINATION    = 108.0142
RA_OF_ASC_NODE = 343.2626
ARG_OF_PERICENTER = 260.2903
MEAN_ANOMALY   = 99.8100

EPHEMERIS_TYPE = 0
CLASSIFICATION_TYPE = U
NORAD_CAT_ID   = 10967
ELEMENT_SET_NO = 999
REV_AT_EPOCH   = 49671
BSTAR          = .25374E-3
MEAN_MOTION_DOT = .77E-5
MEAN_MOTION_DDOT = 0

CCSDS_OMM_VERS = 2.0
CREATION_DATE  = 
ORIGINATOR     = 

OBJECT_NAME    = SL-14 R/B
OBJECT_ID      = 1979-011B
CENTER_NAME    = EARTH
REF_FRAME      = TEME
TIME_SYSTEM    = UTC
MEAN_ELEMENT_THEORY = SGP/SGP4

EPOCH          = 2025-12-31T21:42:34.962912
MEAN_MOTION    = 14.91799107
ECCENTRICITY   = .0014689
INCLINATION    = 82.5243
RA_OF_ASC_NODE = 160.8678
ARG_OF_PERICENTER = 285.6296
MEAN_ANOMALY   = 74.3302

EPHEMERIS_TYPE = 0
CLASSIFICATION_TYPE = U
NORAD_CAT_ID   = 11267
ELEMENT_SET_NO = 999
REV_AT_EPOCH   = 51867
BSTAR          = .11544E-3
MEAN_MOTION_DOT = .1191E-4
MEAN_MOTION_DDOT = 0

CCSDS_OMM_VERS = 2.0
CREATION_DATE  = 
ORIGINATOR     = 

OBJECT_NAME    = SL-8 R/B
OBJECT_ID      = 1979-089B
CENTER_NAME    = EARTH
REF_FRAME      = TEME
TIME_SYSTEM    = UTC
MEAN_ELEMENT_THEORY = SGP/SGP4

EPOCH          = 2026-01-01T01:11:28.512384
MEAN_MOTION    = 14.42296456
ECCENTRICITY   = .00149141
INCLINATION    = 74.0672
RA_OF_ASC_NODE = 216.2404
ARG_OF_PERICENTER = 42.8430
MEAN_ANOMALY   = 317.3886

EPHEMERIS_TYPE = 0
CLASSIFICATION_TYPE = U
NORAD_CAT_ID   = 11574
ELEMENT_SET_NO = 999
REV_AT_EPOCH   = 42635
BSTAR          = .12190499E-3
MEAN_MOTION_DOT = .377E-5
MEAN_MOTION_DDOT = 0

CCSDS_OMM_VERS = 2.0
CREATION_DATE  = 
ORIGINATOR     = 

OBJECT_NAME    = SL-14 R/B
OBJECT_ID      = 1980-005B
CENTER_NAME    = EARTH
REF_FRAME      = TEME
TIME_SYSTEM    = UTC
MEAN_ELEMENT_THEORY = SGP/SGP4

EPOCH          = 2026-01-01T01:47:15.777024
MEAN_MOTION    = 14.90819064
ECCENTRICITY   = .0016645
INCLINATION    = 82.5138
RA_OF_ASC_NODE = 11.3598
ARG_OF_PERICENTER = 33.9810
MEAN_ANOMALY   = 326.2472

EPHEMERIS_TYPE = 0
CLASSIFICATION_TYPE = U
NORAD_CAT_ID   = 11672
ELEMENT_SET_NO = 999
REV_AT_EPOCH   = 46641
BSTAR          = .10992479E-3
MEAN_MOTION_DOT = .1109E-4
MEAN_MOTION_DDOT = 0

CCSDS_OMM_VERS = 2.0
CREATION_DATE  = 
ORIGINATOR     = 

OBJECT_NAME    = SL-8 R/B
OBJECT_ID      = 1981-003B
CENTER_NAME    = EARTH
REF_FRAME      = TEME
TIME_SYSTEM    = UTC
MEAN_ELEMENT_THEORY = SGP/SGP4

EPOCH          = 2025-12-31T22:08:46.648032
MEAN_MOTION    = 15.07738051
ECCENTRICITY   = .0276123
INCLINATION    = 82.9361
RA_OF_ASC_NODE = 352.5519
ARG_OF_PERICENTER = 54.4629
MEAN_ANOMALY   = 308.2010

EPHEMERIS_TYPE = 0
CLASSIFICATION_TYPE = U
NORAD_CAT_ID   = 12139
ELEMENT_SET_NO = 999
REV_AT_EPOCH   = 30445
BSTAR          = .76507E-3
MEAN_MOTION_DOT = .28955E-3
MEAN_MOTION_DDOT = 0

CCSDS_OMM_VERS = 2.0
CREATION_DATE  = 
ORIGINATOR     = 

OBJECT_NAME    = SL-3 R/B
OBJECT_ID      = 1981-046B
CENTER_NAME    = EARTH
REF_FRAME      = TEME
TIME_SYSTEM    = UTC
MEAN_ELEMENT_THEORY = SGP/SGP4

EPOCH          = 2026-01-01T06:06:25.678368
MEAN_MOTION    = 15.40074399
ECCENTRICITY   = .00179578
INCLINATION    = 81.2317
RA_OF_ASC_NODE = 10.5841
ARG_OF_PERICENTER = 252.1360
MEAN_ANOMALY   = 107.7924

EPHEMERIS_TYPE = 0
CLASSIFICATION_TYPE = U
NORAD_CAT_ID   = 12465
ELEMENT_SET_NO = 999
REV_AT_EPOCH   = 42804
BSTAR          = .41287349E-3
MEAN_MOTION_DOT = .16646E-3
MEAN_MOTION_DDOT = 0

CCSDS_OMM_VERS = 2.0
CREATION_DATE  = 
ORIGINATOR     = 

OBJECT_NAME    = SL-3 R/B
OBJECT_ID      = 1981-103B
CENTER_NAME    = EARTH
REF_FRAME      = TEME
TIME_SYSTEM    = UTC
MEAN_ELEMENT_THEORY = SGP/SGP4

EPOCH          = 2026-01-01T06:32:55.870368
MEAN_MOTION    = 15.20501111
ECCENTRICITY   = .00135033
INCLINATION    = 81.1605
RA_OF_ASC_NODE = 292.4744
ARG_OF_PERICENTER = 146.1461
MEAN_ANOMALY   = 214.0634

EPHEMERIS_TYPE = 0
CLASSIFICATION_TYPE = U
NORAD_CAT_ID   = 12904
ELEMENT_SET_NO = 999
REV_AT_EPOCH   = 96298
BSTAR          = .45326723E-3
MEAN_MOTION_DOT = .9956E-4
MEAN_MOTION_DDOT = 0

CCSDS_OMM_VERS = 2.0
CREATION_DATE  = 
ORIGINATOR     = 

OBJECT_NAME    = SL-3 R/B
OBJECT_ID      = 1982-013B
CENTER_NAME    = EARTH
REF_FRAME      = TEME
TIME_SYSTEM    = UTC
MEAN_ELEMENT_THEORY = SGP/SGP4

EPOCH          = 2026-01-01T05:53:42.115776
MEAN_MOTION    = 15.21281005
ECCENTRICITY   = .00237129
INCLINATION    = 81.1745
RA_OF_ASC_NODE = 239.7757
ARG_OF_PERICENTER = 48.3591
MEAN_ANOMALY   = 311.9665

EPHEMERIS_TYPE = 0
CLASSIFICATION_TYPE = U
NORAD_CAT_ID   = 13068
ELEMENT_SET_NO = 999
REV_AT_EPOCH   = 39409
BSTAR          = .29159968E-3
MEAN_MOTION_DOT = .6594E-4
MEAN_MOTION_DDOT = 0

CCSDS_OMM_VERS = 2.0
CREATION_DATE  = 
ORIGINATOR     = 

OBJECT_NAME    = SL-3 R/B
OBJECT_ID      = 1982-039B
CENTER_NAME    = EARTH
REF_FRAME      = TEME
TIME_SYSTEM    = UTC
MEAN_ELEMENT_THEORY = SGP/SGP4

EPOCH          = 2026-01-01T06:13:29.345952
MEAN_MOTION    = 15.09657799
ECCENTRICITY   = .00295367
INCLINATION    = 81.1702
RA_OF_ASC_NODE = 293.6381
ARG_OF_PERICENTER = 185.9816
MEAN_ANOMALY   = 174.1062

EPHEMERIS_TYPE = 0
CLASSIFICATION_TYPE = U
NORAD_CAT_ID   = 13154
ELEMENT_SET_NO = 999
REV_AT_EPOCH   = 37146
BSTAR          = .30140485E-3
MEAN_MOTION_DOT = .4923E-4
MEAN_MOTION_DDOT = 0

