ATLAS CENTAUR R/B       
1 06155U 72065B   26001.25734278  .00002369  00000+0  32706-3 0  9994
2 06155  35.0028 340.8653 0033682 164.1154 196.0609 14.77470350831281
SL-8 R/B                
1 08459U 75112B   25365.82092656  .00000564  00000+0  19419-3 0  9992
2 08459  74.0604 143.7606 0016720 253.2947 106.6372 14.38160270622113
SL-3 R/B                
1 10114U 77057B   26001.27384084  .00018532  00000+0  41497-3 0  9994
2 10114  97.5685 170.3705 0007766 157.8561 202.3023 15.43478295657920
SEASAT 1                
1 10967U 78064A   25365.91333288  .00000770  00000+0  25374-3 0  9993
2 10967 108.0142 343.2626 0001258 260.2903  99.8100 14.46085923496711
SL-14 R/B               
1 11267U 79011B   25365.90457133  .00001191  00000+0  11544-3 0  9997
2 11267  82.5243 160.8678 0014689 285.6296  74.3302 14.91799107518679
SL-8 R/B                
1 11574U 79089B   26001.04963556  .00000377  00000+0  12190-3 0  9990
2 11574  74.0672 216.2404 0014914  42.8430 317.3886 14.42296456426354
SL-14 R/B               
1 11672U 80005B   26001.07448816  .00001109  00000+0  10992-3 0  9991
2 11672  82.5138  11.3598 0016645  33.9810 326.2472 14.90819064466418
SL-8 R/B                
1 12139U 81003B   25365.92276213  .00028955  00000+0  76507-3 0  9997
2 12139  82.9361 352.5519 0276123  54.4629 308.2010 15.07738051304455
SL-3 R/B                
1 12465U 81046B   26001.25446387  .00016646  00000+0  41287-3 0  9992
2 12465  81.2317  10.5841 0017957 252.1360 107.7924 15.40074399428049
SL-3 R/B                
1 12904U 81103B   26001.27286887  .00009956  00000+0  45327-3 0  9998
2 12904  81.1605 292.4744 0013503 146.1461 214.0634 15.20501111962987
SL-3 R/B                
1 13068U 82013B   26001.24562634  .00006594  00000+0  29160-3 0  9997
2 13068  81.1745 239.7757 0023712  48.3591 311.9665 15.21281005394092
SL-3 R/B                
1 13154U 82039B   26001.25936743  .00004923  00000+0  30140-3 0  9992
2 13154  81.1702 293.6381 0029536 185.9816 174.1062 15.09657799371460
